{
    "links": {
        "self": "http://www.neowsapp.com/rest/v1/neo/3734470?api_key=iIulBulltgU6a56xZRHN4H3l9WmuAYTsLGpBGhQ2"
    },
    "id": "3734470",
    "neo_reference_id": "3734470",
    "name": "(2015 VD105)",
    "designation": "2015 VD105",
    "nasa_jpl_url": "http://ssd.jpl.nasa.gov/sbdb.cgi?sstr=3734470",
    "absolute_magnitude_h": 24.7,
    "estimated_diameter": {
        "kilometers": {
            "estimated_diameter_min": 0.0305179233,
            "estimated_diameter_max": 0.0682401509
        },
        "meters": {
            "estimated_diameter_min": 30.5179232594,
            "estimated_diameter_max": 68.2401509401
        },
        "miles": {
            "estimated_diameter_min": 0.0189629525,
            "estimated_diameter_max": 0.0424024508
        },
        "feet": {
            "estimated_diameter_min": 100.1244233463,
            "estimated_diameter_max": 223.8850168104
        }
    },
    "is_potentially_hazardous_asteroid": false,
    "close_approach_data": [
        {
            "close_approach_date": "2015-11-16",
            "close_approach_date_full": "2015-Nov-16 23:50",
            "epoch_date_close_approach": 1447717800000,
            "relative_velocity": {
                "kilometers_per_second": "12.7404189411",
                "kilometers_per_hour": "45865.5081880759",
                "miles_per_hour": "28499.0431294186"
            },
            "miss_distance": {
                "astronomical": "0.0185539333",
                "lunar": "7.2174800537",
                "kilometers": "2775628.901802071",
                "miles": "1724695.8243717398"
            },
            "orbiting_body": "Earth"
        },
        {
            "close_approach_date": "2063-02-25",
            "close_approach_date_full": "2063-Feb-25 16:25",
            "epoch_date_close_approach": 2939646300000,
            "relative_velocity": {
                "kilometers_per_second": "15.8198448696",
                "kilometers_per_hour": "56951.4415303901",
                "miles_per_hour": "35387.4109887027"
            },
            "miss_distance": {
                "astronomical": "0.0902024757",
                "lunar": "35.0887630473",
                "kilometers": "13494098.233446759",
                "miles": "8384843.8318889142"
            },
            "orbiting_body": "Mars"
        }
    ],
    "orbital_data": {
        "orbit_id": "7",
        "orbit_determination_date": "2019-04-18 07:27:05",
        "first_observation_date": "2015-10-18",
        "last_observation_date": "2015-11-13",
        "data_arc_in_days": 26,
        "observations_used": 68,
        "orbit_uncertainty": "7",
        "minimum_orbit_intersection": ".007106",
        "jupiter_tisserand_invariant": "3.152",
        "epoch_osculation": "2459000.5",
        "eccentricity": ".6482905724440614",
        "semi_major_axis": "2.475861551078959",
        "inclination": "1.131132180710779",
        "ascending_node_longitude": "124.3187177019491",
        "orbital_period": "1422.944495958507",
        "perihelion_distance": ".870783848837739",
        "perihelion_argument": "335.7058962274081",
        "aphelion_distance": "4.080939253320179",
        "perihelion_time": "2458798.133180088311",
        "mean_anomaly": "51.1981004003494",
        "mean_motion": ".2529965160429544",
        "equinox": "J2000",
        "orbit_class": {
            "orbit_class_type": "APO",
            "orbit_class_description": "Near-Earth asteroid orbits which cross the Earth’s orbit similar to that of 1862 Apollo",
            "orbit_class_range": "a (semi-major axis) > 1.0 AU; q (perihelion) < 1.017 AU"
        }
    },
    "is_sentry_object": false
}